OBJECT_NAME,OBJECT_ID,EPOCH,MEAN_MOTION,ECCENTRICITY,INCLINATION,RA_OF_ASC_NODE,ARG_OF_PERICENTER,MEAN_ANOMALY,EPHEMERIS_TYPE,CLASSIFICATION_TYPE,NORAD_CAT_ID,ELEMENT_SET_NO,REV_AT_EPOCH,BSTAR,MEAN_MOTION_DOT,MEAN_MOTION_DDOT
SUOMI NPP,2011-061A,2026-07-14T21:36:46.988640,14.19522539,.00007358,98.7956,136.5881,215.9062,144.2065,0,U,37849,999,76237,.21521195E-4,.1E-7,0
YAOGAN-12,2011-066B,2026-07-14T23:44:50.402400,15.26891586,.00108743,97.1125,233.2527,122.9224,237.3063,0,U,37875,999,81628,.11249541E-3,.2906E-4,0
BEIDOU-2 M4,2012-018B,2026-07-13T23:15:17.405280,1.86229381,.00123057,55.6326,303.1845,272.1181,87.7646,0,U,38251,999,9644,0,-.68E-6,0
ARIRANG-3 (KOMPSAT-3),2012-025B,2026-07-14T22:51:06.006240,14.62228934,.0006236,98.1184,152.9357,39.5315,320.6340,0,U,38338,999,75540,.47072719E-4,.191E-5,0
METOP-B,2012-049A,2026-07-14T22:10:00.682464,14.21446316,.0001079,98.6490,246.8674,257.1464,102.9593,0,U,38771,999,71720,.40219257E-4,.45E-6,0
SJ-9A,2012-056A,2026-07-14T21:59:27.913920,14.85528390,.00259601,97.6728,166.8686,162.7024,197.5082,0,U,38860,999,70370,.63458348E-4,.499E-5,0
COSMOS 2484 (RODNIK-S 6),2013-001C,2026-07-14T23:55:24.659616,12.42941387,.00256715,82.4992,204.6025,336.0878,23.9008,0,U,39059,999,61201,.17147023E-2,.248E-5,0
SARAL,2013-009A,2026-07-14T21:40:19.729632,14.32895794,.00016852,98.5555,22.1197,167.2373,192.8854,0,U,39086,999,69957,.30102273E-4,.38E-6,0
STRAND-1,2013-009E,2026-07-14T11:41:03.699168,14.37178635,.00093749,98.3933,15.0510,143.0599,217.1235,0,U,39090,999,70098,.58406637E-4,.131E-5,0
BRITE-AUSTRIA,2013-009F,2026-07-14T10:36:21.813696,14.36552341,.00107224,98.4007,14.2048,152.8336,207.3414,0,U,39091,999,70096,.42362008E-4,.82E-6,0
GAOFEN-1,2013-018A,2026-07-14T23:35:58.529184,14.76519155,.0017021,97.9093,267.4844,171.7452,188.4042,0,U,39150,999,71234,.64604686E-4,.4E-5,0
NEE-01 PEGASO,2013-018B,2026-07-14T07:53:13.793568,14.93786198,.00136338,98.1252,340.3824,76.9613,283.3127,0,U,39151,999,71475,.10978396E-3,.1104E-4,0
PROBA-V,2013-021A,2026-07-14T21:09:26.936064,14.23603367,.00052633,98.3606,173.1237,60.7221,299.4484,0,U,39159,999,68505,.25161826E-4,.16E-6,0
ARIRANG-5 (KOMPSAT-5),2013-042A,2026-07-14T23:11:46.025952,15.04496451,.00054432,97.6205,22.2770,58.7428,301.4331,0,U,39227,999,70803,.66200123E-4,.866E-5,0
GONETS-M 5,2013-048A,2026-07-14T23:12:13.148640,12.42892278,.00173432,82.4850,326.0627,150.1503,210.0570,0,U,39249,999,58233,-.63048888E-3,-.77E-6,0
GONETS-M 7,2013-048C,2026-07-14T22:18:09.033408,12.42915324,.00181342,82.4916,329.0229,151.4702,208.7374,0,U,39251,999,58228,-.2550901E-3,-.25E-6,0
FENGYUN 3C,2013-052A,2026-07-14T23:02:05.374752,14.15760751,.00136796,98.4998,168.5621,306.7083,53.2835,0,U,39260,999,66249,.35369807E-4,.28E-6,0
CASSIOPE,2013-055A,2026-07-14T21:21:59.847264,15.27407988,.02829054,80.9127,33.0119,328.9181,29.5571,0,U,39265,999,67189,.2203267E-3,.20554E-3,-.532602E-6
APRIZESAT 7,2013-066A,2026-07-14T20:37:58.041984,14.91618710,.00372029,97.7722,148.6847,118.3821,242.1157,0,U,39416,999,68535,.49890812E-4,.45E-5,0
ZACUBE-1 (TSHEPISOSAT),2013-066B,2026-07-14T22:25:57.565056,15.01328063,.00440123,97.8008,158.4085,156.0408,204.2877,0,U,39417,999,68489,.99158461E-4,.1238E-4,0
APRIZESAT 8,2013-066K,2026-07-14T20:27:57.289824,14.87696214,.00454591,97.8230,142.9372,193.0108,166.9939,0,U,39425,999,68378,.45858202E-4,.368E-5,0
