SUOMI NPP               
1 37849U 11061A   26195.90054385  .00000001  00000+0  21521-4 0  9992
2 37849  98.7956 136.5881 0000735 215.9062 144.2065 14.19522539762377
YAOGAN-12               
1 37875U 11066B   26195.98947225  .00002906  00000+0  11250-3 0  9991
2 37875  97.1125 233.2527 0010874 122.9224 237.3063 15.26891586816283
BEIDOU-2 M4             
1 38251U 12018B   26194.96895145 -.00000068  00000+0  00000+0 0  9993
2 38251  55.6326 303.1845 0012305 272.1181  87.7646  1.86229381 96446
ARIRANG-3 (KOMPSAT-3)   
1 38338U 12025B   26195.95215285  .00000191  00000+0  47073-4 0  9990
2 38338  98.1184 152.9357 0006236  39.5315 320.6340 14.62228934755403
METOP-B                 
1 38771U 12049A   26195.92361901  .00000045  00000+0  40219-4 0  9994
2 38771  98.6490 246.8674 0001079 257.1464 102.9593 14.21446316717205
SJ-9A                   
1 38860U 12056A   26195.91629530  .00000499  00000+0  63458-4 0  9998
2 38860  97.6728 166.8686 0025960 162.7024 197.5082 14.85528390703705
COSMOS 2484 (RODNIK-S 6)
1 39059U 13001C   26195.99681319  .00000248  00000+0  17147-2 0  9995
2 39059  82.4992 204.6025 0025671 336.0878  23.9008 12.42941387612010
SARAL                   
1 39086U 13009A   26195.90300613  .00000038  00000+0  30102-4 0  9994
2 39086  98.5555  22.1197 0001685 167.2373 192.8854 14.32895794699571
STRAND-1                
1 39090U 13009E   26195.48684837  .00000131  00000+0  58407-4 0  9997
2 39090  98.3933  15.0510 0009374 143.0599 217.1235 14.37178635700984
BRITE-AUSTRIA           
1 39091U 13009F   26195.44191914  .00000082  00000+0  42362-4 0  9991
2 39091  98.4007  14.2048 0010722 152.8336 207.3414 14.36552341700968
GAOFEN-1                
1 39150U 13018A   26195.98331631  .00000400  00000+0  64605-4 0  9996
2 39150  97.9093 267.4844 0017021 171.7452 188.4042 14.76519155712348
NEE-01 PEGASO           
1 39151U 13018B   26195.32863187  .00001104  00000+0  10978-3 0  9996
2 39151  98.1252 340.3824 0013633  76.9613 283.3127 14.93786198714756
PROBA-V                 
1 39159U 13021A   26195.88156176  .00000016  00000+0  25162-4 0  9995
2 39159  98.3606 173.1237 0005263  60.7221 299.4484 14.23603367685058
ARIRANG-5 (KOMPSAT-5)   
1 39227U 13042A   26195.96650493  .00000866  00000+0  66200-4 0  9995
2 39227  97.6205  22.2770 0005443  58.7428 301.4331 15.04496451708036
GONETS-M 5              
1 39249U 13048A   26195.96681885 -.00000077  00000+0 -63049-3 0  9997
2 39249  82.4850 326.0627 0017343 150.1503 210.0570 12.42892278582336
GONETS-M 7              
1 39251U 13048C   26195.92927122 -.00000025  00000+0 -25509-3 0  9995
2 39251  82.4916 329.0229 0018134 151.4702 208.7374 12.42915324582285
FENGYUN 3C              
1 39260U 13052A   26195.95978443  .00000028  00000+0  35370-4 0  9994
2 39260  98.4998 168.5621 0013679 306.7083  53.2835 14.15760751662491
CASSIOPE                
1 39265U 13055A   26195.89027601  .00020554 -53260-6  22033-3 0  9997
2 39265  80.9127  33.0119 0282905 328.9181  29.5571 15.27407988671890
APRIZESAT 7             
1 39416U 13066A   26195.85969956  .00000450  00000+0  49891-4 0  9992
2 39416  97.7722 148.6847 0037202 118.3821 242.1157 14.91618710685352
ZACUBE-1 (TSHEPISOSAT)  
1 39417U 13066B   26195.93469404  .00001238  00000+0  99158-4 0  9991
2 39417  97.8008 158.4085 0044012 156.0408 204.2877 15.01328063684898
APRIZESAT 8             
1 39425U 13066K   26195.85274641  .00000368  00000+0  45858-4 0  9999
2 39425  97.8230 142.9372 0045459 193.0108 166.9939 14.87696214683784
